NARSSCUBE-2             
1 44415U 19022E   22360.46325848  .00011724  00000+0  31110-3 0  9998
2 44415  51.6389 265.7720 0010424  39.4574 320.7167 15.38698163189637
DUCHIFAT-3              
1 44854U 19089C   22361.19902352  .00005319  00000+0  39595-3 0  9998
2 44854  36.9656  36.4416 0007874 345.1822  68.4160 15.02735427166922
OPS-SAT                 
1 44878U 19092F   22361.44414260  .00014466  00000+0  59376-3 0  9994
2 44878  97.4761 184.2694 0012327  30.9598 329.2363 15.24260768167542
FLORIPASAT-1            
1 44885U 19093G   22361.51933216  .00002737  00000+0  33480-3 0  9994
2 44885  97.8850  79.7093 0012774 283.1104  76.8697 14.83992317163474
HUSKYSAT-1 (HO-107)     
1 45119U 19071J   22360.80050153  .00056865  00000+0  74840-3 0  9998
2 45119  51.6323 186.8415 0010179 166.8969 193.2289 15.57841301163197
BY70-2                  
1 45857U 20042B   22361.24168022  .00010731  00000+0  13296-2 0  9990
2 45857  97.9420  76.4638 0009790 203.9937 156.0712 14.82839014133991
SALSAT                  
1 46495U 20068K   22360.78130156  .00003816  00000+0  26864-3 0  9994
2 46495  97.7527 302.4597 0016004 351.8881   8.2084 15.05567166123114
NETSAT-4                
1 46504U 20068U   22360.91842947  .00005094  00000+0  36522-3 0  9990
2 46504  97.7417 300.6721 0012806  38.7832 321.4303 15.04749474122975
NETSAT-3                
1 46505U 20068V   22360.40758930  .00003578  00000+0  25833-3 0  9991
2 46505  97.7430 300.0476 0012302  45.8321 314.3909 15.04691760122905
NETSAT-1                
1 46506U 20068W   22360.89685395  .00004109  00000+0  29652-3 0  9993
2 46506  97.7426 300.4486 0010539  57.3934 302.8300 15.04641084122972
NETSAT-2                
1 46507U 20068X   22360.77468437  .00005021  00000+0  36113-3 0  9991
2 46507  97.7410 300.3176 0009569  63.2837 296.9364 15.04662813122909
BY70-3                  
1 46839U 20079N   22361.06694932  .00054203  00000+0  80668-3 0  9995
2 46839  97.1773  71.7925 0003957   3.5091  81.2386 15.54961584120020
UVSQ-SAT                
1 47438U 21006AB  22360.64372108  .00009828  00000+0  48023-3 0  9995
2 47438  97.4122  55.7410 0010439 334.3486  25.7229 15.18398876106418
SOMP2B                  
1 47445U 21006AJ  22360.42943607  .00007318  00000+0  36396-3 0  9999
2 47445  97.4097  55.0128 0010338 340.3269  19.7564 15.17875252106366
DIY-1 (ARDUIQUBE)       
1 47963U 21022AH  22360.90821935  .00037398  00000+0  16325-2 0  9994
2 47963  97.5168 260.7851 0013109 177.1781 182.9531 15.21957384 96124
CAS-5A                  
1 54684U 22167C   22361.11187302  .00007575  00000+0  48214-3 0  9997
2 54684  97.5391 135.7972 0014247 202.1011 273.6401 15.08981505  2683
